GLOBALSTAR M062         
1 26082U 00008B   25354.14292733 -.00000123  00000+0 -17940-3 0  9997
2 26082  51.9855 268.9372 0007121 142.2033 357.6522 12.43478497519752
GLOBALSTAR M060         
1 26083U 00008C   25353.91075897 -.00000013  00000+0  77471-3 0  9994
2 26083  52.0016 255.9055 0003478 125.9315 313.6553 12.17671573174990
GLOBALSTAR M064         
1 26084U 00008D   25353.91895566 -.00000091  00000+0 -10792-3 0  9998
2 26084  52.0039  79.0553 0001834  79.4656 280.6383 11.88539261189184
GLOBALSTAR M065         
1 31571U 07020A   25351.59775860 -.00000114  00000+0 -59491-4 0  9998
2 31571  51.9915  28.0181 0009699 356.5964 173.4742 12.62015524856566
GLOBALSTAR M069         
1 31573U 07020C   25354.18882729 -.00000058  00000+0  31796-3 0  9994
2 31573  52.0048  38.7596 0002208 139.1217 261.0612 12.23465045856890
GLOBALSTAR M072         
1 31574U 07020D   25354.07550841 -.00000045  00000+0  53108-3 0  9997
2 31574  51.9905 217.0909 0001328  19.9236 135.7869 11.91654598853625
GLOBALSTAR M071         
1 31576U 07020F   25354.20130730 -.00000048  00000+0  42589-3 0  9999
2 31576  52.0072  69.5860 0001525 127.3721 257.4650 12.18262709517617
